{
  "type": "FeatureCollection",
  "features": [
    {
      "type": "Feature",
      "properties": {
        "norad_id": 49537,
        "name": "COSMOS 1408 DEB",
        "group": "cosmos-1408-debris",
        "lat": -45.18263162268732,
        "lon": -66.45492174353522,
        "alt_km": 154.96814788305073,
        "timestamp": "2025-12-02T10:50:47.544420+00:00",
        "meta_object_name": "COSMOS 1408 DEB",
        "meta_object_id": "1982-092AA",
        "meta_epoch": "2025-12-01T10:29:21.651360",
        "meta_mean_motion": 16.33498888,
        "meta_eccentricity": 0.00127731,
        "meta_inclination": 82.5092,
        "meta_ra_of_asc_node": 107.1368,
        "meta_arg_of_pericenter": 299.8571,
        "meta_mean_anomaly": 60.1455,
        "meta_ephemeris_type": 0,
        "meta_classification_type": "U",
        "meta_norad_cat_id": 49537,
        "meta_element_set_no": 999,
        "meta_rev_at_epoch": 22403,
        "meta_bstar": 0.00094222941,
        "meta_mean_motion_dot": 0.05878558,
        "meta_mean_motion_ddot": -1.252052e-06,
        "tle_line1": "1 49537U 82092AA  25335.43705615  .05878558 -12521-5  94223-3 0  9994",
        "tle_line2": "2 49537  82.5092 107.1368 0012773 299.8571  60.1455 16.33498888224033"
      },
      "geometry": {
        "type": "Point",
        "coordinates": [
          -66.45492174353522,
          -45.18263162268732
        ]
      }
    },
    {
      "type": "Feature",
      "properties": {
        "norad_id": 50032,
        "name": "COSMOS 1408 DEB",
        "group": "cosmos-1408-debris",
        "lat": 19.075565067168995,
        "lon": -113.53772005558113,
        "alt_km": 429.90639057611133,
        "timestamp": "2025-12-02T10:50:47.544440+00:00",
        "meta_object_name": "COSMOS 1408 DEB",
        "meta_object_id": "1982-092RU",
        "meta_epoch": "2025-12-01T12:23:52.259712",
        "meta_mean_motion": 15.45515791,
        "meta_eccentricity": 0.00146094,
        "meta_inclination": 82.5648,
        "meta_ra_of_asc_node": 70.0089,
        "meta_arg_of_pericenter": 252.6553,
        "meta_mean_anomaly": 107.3098,
        "meta_ephemeris_type": 0,
        "meta_classification_type": "U",
        "meta_norad_cat_id": 50032,
        "meta_element_set_no": 999,
        "meta_rev_at_epoch": 22430,
        "meta_bstar": 0.00013928653,
        "meta_mean_motion_dot": 6.746e-05,
        "meta_mean_motion_ddot": 0,
        "tle_line1": "1 50032U 82092RU  25335.51657708  .00006746  00000+0  13929-3 0  9997",
        "tle_line2": "2 50032  82.5648  70.0089 0014609 252.6553 107.3098 15.45515791224309"
      },
      "geometry": {
        "type": "Point",
        "coordinates": [
          -113.53772005558113,
          19.075565067168995
        ]
      }
    },
    {
      "type": "Feature",
      "properties": {
        "norad_id": 50058,
        "name": "COSMOS 1408 DEB",
        "group": "cosmos-1408-debris",
        "lat": 55.01444464298481,
        "lon": 90.78372217188243,
        "alt_km": 371.3930167451881,
        "timestamp": "2025-12-02T10:50:47.544454+00:00",
        "meta_object_name": "COSMOS 1408 DEB",
        "meta_object_id": "1982-092SW",
        "meta_epoch": "2025-12-01T17:42:30.577824",
        "meta_mean_motion": 15.63113655,
        "meta_eccentricity": 0.0016295,
        "meta_inclination": 82.6131,
        "meta_ra_of_asc_node": 80.8464,
        "meta_arg_of_pericenter": 138.1826,
        "meta_mean_anomaly": 222.0681,
        "meta_ephemeris_type": 0,
        "meta_classification_type": "U",
        "meta_norad_cat_id": 50058,
        "meta_element_set_no": 999,
        "meta_rev_at_epoch": 22632,
        "meta_bstar": 0.00037559,
        "meta_mean_motion_dot": 0.00034537,
        "meta_mean_motion_ddot": 0,
        "tle_line1": "1 50058U 82092SW  25335.73785391  .00034537  00000+0  37559-3 0  9993",
        "tle_line2": "2 50058  82.6131  80.8464 0016295 138.1826 222.0681 15.63113655226325"
      },
      "geometry": {
        "type": "Point",
        "coordinates": [
          90.78372217188243,
          55.01444464298481
        ]
      }
    },
    {
      "type": "Feature",
      "properties": {
        "norad_id": 50404,
        "name": "COSMOS 1408 DEB",
        "group": "cosmos-1408-debris",
        "lat": -68.43886776096676,
        "lon": 65.8276465350031,
        "alt_km": 420.39100545713245,
        "timestamp": "2025-12-02T10:50:47.544465+00:00",
        "meta_object_name": "COSMOS 1408 DEB",
        "meta_object_id": "1982-092ADS",
        "meta_epoch": "2025-12-02T03:23:04.900416",
        "meta_mean_motion": 15.11568017,
        "meta_eccentricity": 0.0177045,
        "meta_inclination": 82.207,
        "meta_ra_of_asc_node": 225.8658,
        "meta_arg_of_pericenter": 235.6536,
        "meta_mean_anomaly": 122.7837,
        "meta_ephemeris_type": 0,
        "meta_classification_type": "U",
        "meta_norad_cat_id": 50404,
        "meta_element_set_no": 999,
        "meta_rev_at_epoch": 21033,
        "meta_bstar": 0.0031085,
        "meta_mean_motion_dot": 0.00077873,
        "meta_mean_motion_ddot": 0,
        "tle_line1": "1 50404U 82092ADS 25336.14102894  .00077873  00000+0  31085-2 0  9992",
        "tle_line2": "2 50404  82.2070 225.8658 0177045 235.6536 122.7837 15.11568017210338"
      },
      "geometry": {
        "type": "Point",
        "coordinates": [
          65.8276465350031,
          -68.43886776096676
        ]
      }
    },
    {
      "type": "Feature",
      "properties": {
        "norad_id": 50621,
        "name": "COSMOS 1408 DEB",
        "group": "cosmos-1408-debris",
        "lat": -14.420979527800387,
        "lon": 82.9596240335183,
        "alt_km": 422.30947087632103,
        "timestamp": "2025-12-02T10:50:47.544476+00:00",
        "meta_object_name": "COSMOS 1408 DEB",
        "meta_object_id": "1982-092ALR",
        "meta_epoch": "2025-12-01T08:40:02.733600",
        "meta_mean_motion": 15.55763582,
        "meta_eccentricity": 0.00289111,
        "meta_inclination": 82.5699,
        "meta_ra_of_asc_node": 86.0169,
        "meta_arg_of_pericenter": 194.2516,
        "meta_mean_anomaly": 165.7927,
        "meta_ephemeris_type": 0,
        "meta_classification_type": "U",
        "meta_norad_cat_id": 50621,
        "meta_element_set_no": 999,
        "meta_rev_at_epoch": 22073,
        "meta_bstar": 0.00047506619,
        "meta_mean_motion_dot": 0.00033485,
        "meta_mean_motion_ddot": 0,
        "tle_line1": "1 50621U 82092ALR 25335.36114275  .00033485  00000+0  47507-3 0  9990",
        "tle_line2": "2 50621  82.5699  86.0169 0028911 194.2516 165.7927 15.55763582220732"
      },
      "geometry": {
        "type": "Point",
        "coordinates": [
          82.9596240335183,
          -14.420979527800387
        ]
      }
    }
  ]
}